OBJECT_NAME,OBJECT_ID,EPOCH,MEAN_MOTION,ECCENTRICITY,INCLINATION,RA_OF_ASC_NODE,ARG_OF_PERICENTER,MEAN_ANOMALY,EPHEMERIS_TYPE,CLASSIFICATION_TYPE,NORAD_CAT_ID,ELEMENT_SET_NO,REV_AT_EPOCH,BSTAR,MEAN_MOTION_DOT,MEAN_MOTION_DDOT
PROBA-1,2001-049B,2026-07-10T07:13:53.184000,15.07602673,.00559546,97.9607,200.6414,45.7973,314.7831,0,U,26958,999,34710,.16719435E-3,.2565E-4,0
CUTE-1 (CO-55),2003-031E,2026-07-10T00:11:45.746304,14.24349450,.00107182,98.6739,199.2802,116.0719,244.1564,0,U,27844,999,19492,.97602803E-4,.182E-5,0
CUBESAT XI-IV (CO-57),2003-031J,2026-07-09T12:23:12.233184,14.23632552,.00103422,98.6771,198.4889,134.3964,225.8063,0,U,27848,999,19455,.91111366E-4,.164E-5,0
APRIZESAT 4,2009-041D,2026-07-10T01:10:13.130112,14.83909503,.00419953,98.1404,266.8244,246.6745,113.0046,0,U,35684,999,91475,.58815273E-4,.436E-5,0
APRIZESAT 3,2009-041F,2026-07-10T05:41:28.726656,14.96300654,.00611381,98.2087,345.5692,352.2425,7.7843,0,U,35686,999,91982,.98316759E-4,.1084E-4,0
PROBA-2,2009-059B,2026-07-10T00:07:23.168064,14.54872230,.00126413,98.2458,14.0423,205.2097,154.8484,0,U,36037,999,88484,.38810094E-4,.121E-5,0
APRIZESAT 5,2011-044E,2026-07-08T18:15:41.477472,14.81120449,.0050828,98.2450,123.4135,293.9839,65.6055,0,U,37792,999,80198,.92978597E-4,.678E-5,0
APRIZESAT 6,2011-044F,2026-07-09T06:02:21.581088,14.76951131,.00435426,98.2345,101.2003,17.1771,143.8073,0,U,37793,999,80040,.86959659E-4,.565E-5,0
PROBA-V,2013-021A,2026-07-09T16:19:56.473536,14.23602758,.00053844,98.3601,168.1783,72.5879,287.5889,0,U,39159,999,68431,.44769765E-4,.61E-6,0
APRIZESAT 7,2013-066A,2026-07-10T07:09:12.240576,14.91612963,.00368933,97.7720,144.1876,133.0204,227.4116,0,U,39416,999,68467,.83184843E-4,.788E-5,0
APRIZESAT 8,2013-066K,2026-07-10T06:41:52.543104,14.87691705,.00450896,97.8227,138.4264,208.2637,151.6132,0,U,39425,999,68310,.60493228E-4,.504E-5,0
BUGSAT-1 (TITA),2014-033E,2026-07-10T06:34:52.591584,15.15849719,.0029001,98.0425,285.1768,101.9577,258.4908,0,U,40014,999,65933,.26825178E-3,.5108E-4,0
SAUDISAT 4,2014-033G,2026-07-09T15:20:30.375744,14.79571960,.00447289,97.7610,336.0009,2.2228,357.9175,0,U,40016,999,64939,.53590382E-4,.355E-5,0
APRIZESAT 9,2014-033J,2026-07-09T14:32:28.813920,14.74247790,.00672461,97.9087,323.2598,127.5578,233.1765,0,U,40018,999,64686,.77297808E-4,.477E-5,0
APRIZESAT 10,2014-033K,2026-07-09T07:17:04.716384,14.70906398,.00782609,97.9675,316.7729,202.2274,157.5534,0,U,40019,999,64550,.74621834E-4,.426E-5,0
TECHDEMOSAT-1 (TDS-1),2014-037H,2026-07-09T16:53:16.096992,15.13630061,.00063661,98.3824,185.1544,175.4658,184.6630,0,U,40076,999,65163,.26271602E-3,.4644E-4,0
TECHNOSAT,2017-042E,2026-07-10T06:04:51.176640,15.05091341,.00178569,97.4302,348.0375,19.2762,340.9137,0,U,42829,999,49017,.18714345E-3,.2611E-4,0
FLYING LAPTOP,2017-042G,2026-07-10T07:32:59.917632,15.01291877,.00198656,97.4787,345.9737,47.9662,312.3249,0,U,42831,999,48992,.17529969E-3,.2206E-4,0
HAWK-A,2018-099H,2026-07-10T02:53:03.016320,15.24923091,.00342021,97.3904,243.0590,201.9017,158.0761,0,U,43765,999,41659,.18794947E-3,.4682E-4,0
HAWK-B,2018-099AN,2026-07-10T02:29:02.568480,15.23078236,.00308945,97.3952,242.4091,220.3198,139.5749,0,U,43794,999,41652,.17987618E-3,.4222E-4,0
HAWK-C,2018-099AT,2026-07-10T01:04:01.344000,15.28438375,.00397832,97.3884,244.0095,202.1098,157.8428,0,U,43799,999,41740,.21155374E-3,.5917E-4,0
SALSAT,2020-068K,2026-07-09T06:02:33.013536,15.30117525,.00085936,97.8858,194.6644,215.0810,144.9864,0,U,46495,999,31873,.19084228E-3,.5482E-4,0
HAWK-2C,2021-006CT,2026-07-10T04:00:25.026048,15.34948446,.00085524,97.2272,235.0203,115.2036,245.0096,0,U,47502,999,30302,.14382955E-3,.4802E-4,0
HAWK-2A,2021-006CW,2026-07-10T04:03:41.431392,15.34963523,.00080494,97.2315,235.7136,118.3840,241.8217,0,U,47505,999,30302,.14559186E-3,.4863E-4,0
HAWK-2B,2021-006CZ,2026-07-10T02:21:06.169248,15.35088886,.00086138,97.2185,233.9393,116.9526,243.2599,0,U,47508,999,30301,.16003192E-3,.5376E-4,0
HAWK-3B,2021-059BE,2026-07-10T00:09:47.277216,15.71525502,.00040899,97.6649,29.9062,217.8107,142.2868,0,U,48931,999,28143,.27709148E-3,.35395E-3,0
HAWK-3C,2021-059BX,2026-07-10T00:09:20.910528,15.71533406,.00044041,97.6774,35.6306,218.4113,141.6836,0,U,48948,999,28143,.29488046E-3,.37702E-3,0
HAWK-3A,2021-059CG,2026-07-10T00:09:11.136960,15.71532739,.00043448,97.6711,32.8165,219.9841,140.1101,0,U,48957,999,28143,.29181336E-3,.37305E-3,0
HAWK-5C,2022-057Y,2026-07-09T20:54:51.613344,15.52200356,.00033093,97.6610,352.0184,7.5352,352.5949,0,U,52754,999,22986,.2408882E-3,.14501E-3,0
HAWK-5B,2022-057AA,2026-07-09T17:48:55.177056,15.52193096,.00039782,97.6627,350.2329,354.7757,5.3452,0,U,52756,999,22984,.22497473E-3,.13532E-3,0
